HIMAWARI-8              
1 40267U 14060A   24254.86021791 -.00000270  00000+0  00000+0 0  9999
2 40267   0.0112 213.3957 0000920 296.2336 291.0936  1.00272631 36299
